SAT-1
1 00001U 25001A   25001.00000000  .00000000  00000-0  00000-0 0  9997
2 00001  52.0000   0.0000 0001000   0.0000   0.0000 13.16009679    03
SAT-2
1 00002U 25001A   25001.00000000  .00000000  00000-0  00000-0 0  9998
2 00002  52.0000   0.0000 0001000   0.0000  60.0000 13.16009679    00
SAT-3
1 00003U 25001A   25001.00000000  .00000000  00000-0  00000-0 0  9999
2 00003  52.0000   0.0000 0001000   0.0000 120.0000 13.16009679    08
SAT-4
1 00004U 25001A   25001.00000000  .00000000  00000-0  00000-0 0  9990
2 00004  52.0000   0.0000 0001000   0.0000 180.0000 13.16009679    05
SAT-5
1 00005U 25001A   25001.00000000  .00000000  00000-0  00000-0 0  9991
2 00005  52.0000   0.0000 0001000   0.0000 240.0000 13.16009679    03
SAT-6
1 00006U 25001A   25001.00000000  .00000000  00000-0  00000-0 0  9992
2 00006  52.0000   0.0000 0001000   0.0000 300.0000 13.16009679    01

SAT-7
1 00007U 25001A   25001.00000000  .00000000  00000-0  00000-0 0  9993
2 00007  52.0000  12.0000 0001000   0.0000  30.0000 13.16009679    05
SAT-8
1 00008U 25001A   25001.00000000  .00000000  00000-0  00000-0 0  9994
2 00008  52.0000  12.0000 0001000   0.0000  90.0000 13.16009679    02
SAT-9
1 00009U 25001A   25001.00000000  .00000000  00000-0  00000-0 0  9995
2 00009  52.0000  12.0000 0001000   0.0000 150.0000 13.16009679    00
SAT-10
1 00010U 25001A   25001.00000000  .00000000  00000-0  00000-0 0  9997
2 00010  52.0000  12.0000 0001000   0.0000 210.0000 13.16009679    09
SAT-11
1 00011U 25001A   25001.00000000  .00000000  00000-0  00000-0 0  9998
2 00011  52.0000  12.0000 0001000   0.0000 270.0000 13.16009679    06
SAT-12
1 00012U 25001A   25001.00000000  .00000000  00000-0  00000-0 0  9999
2 00012  52.0000  12.0000 0001000   0.0000 330.0000 13.16009679    04
